1 22969U 94003A   99189.50623847  .00000051  00000-0  10000-3 0  6194
2 22969  82.5610 192.8539 0015110 334.0021  26.0341 13.16779676261963
1 22969U 94003A   99189.50623857  .00000051  00000-0  10000-3 0  6173
2 22969  82.5611 192.8542 0015179 333.9468  26.0889 13.16779666261962
1 22969U 94003A   99190.11410027  .00000051  00000-0  10000-3 0  6287
2 22969  82.5613 192.4253 0015168 332.2935  27.7379 13.16779797262045
1 22969U 94003A   99190.19008305  .00000051  00000-0  10000-3 0  5332
2 22969  82.5613 192.3716 0015169 332.1109  27.9199 13.16779804262053
1 22969U 94003A   99190.49401390  .00000051  00000-0  10000-3 0  5460
2 22969  82.5613 192.1571 0014987 331.4658  28.5644 13.16779851262096
1 22969U 94003A   99191.10187616  .00000051  00000-0  10000-3 0  5595
2 22969  82.5613 191.7284 0014961 329.8752  30.1507 13.16779889262177
1 22969U 94003A   99191.48179008  .00000051  00000-0  10000-3 0  5693
2 22969  82.5614 191.4604 0014879 328.9308  31.0934 13.16779915262226
1 22969U 94003A   99192.08965299  .00000051  00000-0  10000-3 0  5820
2 22969  82.5612 191.0317 0014818 327.6269  32.3942 13.16779885262304
1 22969U 94003A   99192.54554989  .00000051  00000-0  10000-3 0  5911
2 22969  82.5611 190.7098 0014823 326.4354  33.5827 13.16779903262365
1 22969U 94003A   99192.62153270  .00000051  00000-0  10000-3 0  5929
2 22969  82.5611 190.6562 0014818 326.2293  33.7883 13.16779905262371
1 22969U 94003A   99193.07743065  .00000051  00000-0  10000-3 0  6040
2 22969  82.5607 190.3347 0014732 325.5308  34.4854 13.16779791262434
1 22969U 94003A   99193.45734497  .00000051  00000-0  10000-3 0  6175
2 22969  82.5606 190.0665 0014796 324.4862  35.5274 13.16779797262485
1 22969U 94003A   99193.60931057  .00000051  00000-0  10000-3 0  6184
2 22969  82.5606 189.9593 0014796 324.1066  35.9061 13.16779809262500
1 22969U 94003A   99194.14119150  .00000051  00000-0  10000-3 0  6322
2 22969  82.5602 189.5840 0014823 322.9185  37.0899 13.16779658262577
1 22969U 94003A   99194.52110622  .00000051  00000-0  10000-3 0  5340
2 22969  82.5599 189.3157 0014956 321.6906  38.3152 13.16779633262620
1 22969U 94003A   99194.52110622  .00000051  00000-0  10000-3 0  6431
2 22969  82.5599 189.3157 0014956 321.6906  38.3152 13.16779633262620
1 22969U 94003A   99194.82503750  .00000051  00000-0  10000-3 0  5352
2 22969  82.5599 189.1013 0014947 320.9354  39.0686 13.16779650262661
1 22969U 94003A   99195.12896980  .00000051  00000-0  10000-3 0  5479
2 22969  82.5595 188.8867 0014912 320.2738  39.7283 13.16779523262705
1 22969U 94003A   99195.43290131  .00000051  00000-0  10000-3 0  5570
2 22969  82.5595 188.6723 0014907 319.4481  40.5529 13.16779533262741
1 22969U 94003A   99195.81281559  .00000051  00000-0  10000-3 0  5611
2 22969  82.5594 188.4040 0014960 318.4659  41.5323 13.16779544262795
1 22969U 94003A   99196.11674718  .00000051  00000-0  10000-3 0  5685
2 22969  82.5593 188.1895 0014923 317.5949  42.4012 13.16779503262835
1 22969U 94003A   99196.49666149  .00000051  00000-0  10000-3 0  5810
2 22969  82.5593 187.9215 0014854 316.5083  43.4867 13.16779510262881
1 22969U 94003A   99196.95255839  .00000051  00000-0  10000-3 0  5888
2 22969  82.5593 187.5997 0014849 315.3254  44.6671 13.16779553262945
1 22969U 94003A   99197.18050696  .00000051  00000-0  10000-3 0  5956
2 22969  82.5593 187.4389 0014820 314.7737  45.2180 13.16779565262975
1 22969U 94003A   99197.48443798  .00000051  00000-0  10000-3 0  6061
2 22969  82.5595 187.2248 0014659 313.8689  46.1221 13.16779593263018
1 22969U 94003A   99197.86435215  .00000051  00000-0  10000-3 0  6079
2 22969  82.5595 186.9565 0014685 312.8391  47.1506 13.16779649263068
1 22969U 94003A   99198.16828297  .00000051  00000-0  10000-3 0  6158
2 22969  82.5598 186.7425 0014691 312.0545  47.9331 13.16779721263104
1 22969U 94003A   99198.47221391  .00000051  00000-0  10000-3 0  6266
2 22969  82.5599 186.5282 0014562 311.1548  48.8318 13.16779762263148
1 22969U 94003A   99198.85212802  .00000051  00000-0  10000-3 0  5354
2 22969  82.5600 186.2600 0014579 310.2004  49.7845 13.16779805263195
1 22969U 94003A   99198.85212802  .00000051  00000-0  10000-3 0  6276
2 22969  82.5600 186.2600 0014579 310.2004  49.7845 13.16779805263195
1 22969U 94003A   99199.23204123  .00000051  00000-0  10000-3 0  5477
2 22969  82.5602 185.9921 0014626 309.0242  50.9579 13.16779932263247
1 22969U 94003A   99199.45998924  .00000051  00000-0  10000-3 0  5582
2 22969  82.5603 185.8312 0014396 308.1601  51.8226 13.16779974263272
1 22969U 94003A   99199.83990330  .00000051  00000-0  10000-3 0  5598
2 22969  82.5603 185.5631 0014413 307.2121  52.7690 13.16780018263322
1 22969U 94003A   99200.14383379  .00000051  00000-0  10000-3 0  5730
2 22969  82.5605 185.3488 0014463 306.1987  53.7798 13.16780112263364
1 22969U 94003A   99200.44776496  .00000051  00000-0  10000-3 0  5795
2 22969  82.5607 185.1346 0014394 305.3925  54.5854 13.16780145263406
1 22969U 94003A   99200.82767900  .00000051  00000-0  10000-3 0  5809
2 22969  82.5607 184.8665 0014400 304.4256  55.5507 13.16780181263452
1 22969U 94003A   99201.13161018  .00000051  00000-0  10000-3 0  5903
2 22969  82.5607 184.6522 0014395 303.5483  56.4262 13.16780191263490
1 22969U 94003A   99201.51152409  .00000051  00000-0  10000-3 0  6012
2 22969  82.5607 184.3843 0014280 302.4424  57.5317 13.16780229263540
1 22969U 94003A   99201.89143816  .00000051  00000-0  10000-3 0  6037
2 22969  82.5607 184.1162 0014276 301.4550  58.5177 13.16780258263598
1 22969U 94003A   99202.11938690  .00000051  00000-0  10000-3 0  6147
2 22969  82.5606 183.9555 0014231 300.7631  59.2086 13.16780211263623
1 22969U 94003A   99202.49930116  .00000051  00000-0  10000-3 0  6233
2 22969  82.5605 183.6872 0014251 299.7914  60.1789 13.16780227263677
1 22969U 94003A   99202.87921544  .00000051  00000-0  10000-3 0  5363
2 22969  82.5605 183.4191 0014235 298.8962  61.0731 13.16780238263729
1 22969U 94003A   99202.87921544  .00000051  00000-0  10000-3 0  6274
2 22969  82.5605 183.4191 0014235 298.8962  61.0731 13.16780238263729
1 22969U 94003A   99203.10716444  .00000051  00000-0  10000-3 0  5440
2 22969  82.5604 183.2583 0014325 298.6367  61.3303 13.16780181263756
1 22969U 94003A   99203.48707943  .00000051  00000-0  10000-3 0  5591
2 22969  82.5602 182.9901 0014369 297.7660  62.2004 13.16780135263801
1 22969U 94003A   99203.86699368  .00000051  00000-0  10000-3 0  5639
2 22969  82.5602 182.7221 0014370 296.9062  63.0591 13.16780157263852
1 22969U 94003A   99204.09494307  .00000051  00000-0  10000-3 0  5709
2 22969  82.5598 182.5614 0014361 296.2202  63.7430 13.16780007263885
1 22969U 94003A   99204.47485797  .00000051  00000-0  10000-3 0  5805
2 22969  82.5597 182.2934 0014496 295.3043  64.6576 13.16779980263933
1 22969U 94003A   99204.85477225  .00000051  00000-0  10000-3 0  5826
2 22969  82.5597 182.0252 0014481 294.4003  65.5604 13.16779994263986
1 22969U 94003A   99205.08272191  .00000051  00000-0  10000-3 0  5917
2 22969  82.5594 181.8644 0014406 293.7763  66.1837 13.16779839264015
1 22969U 94003A   99205.46263669  .00000051  00000-0  10000-3 0  6022
2 22969  82.5592 181.5963 0014487 292.8658  67.0934 13.16779831264061
1 22969U 94003A   99205.76656812  .00000051  00000-0  10000-3 0  6032
2 22969  82.5592 181.3818 0014471 292.1107  67.8474 13.16779842264107
1 22969U 94003A   99206.14648293  .00000051  00000-0  10000-3 0  6118
2 22969  82.5592 181.1137 0014426 291.2605  68.6976 13.16779824264153
1 22969U 94003A   99206.45041441  .00000051  00000-0  10000-3 0  6192
2 22969  82.5591 180.8990 0014429 290.4328  69.5244 13.16779837264197
1 22969U 94003A   99206.75434584  .00000051  00000-0  10000-3 0  6201
2 22969  82.5591 180.6845 0014420 289.6844  70.2719 13.16779853264237
1 22969U 94003A   99206.90631165  .00000051  00000-0  10000-3 0  5379
2 22969  82.5590 180.5772 0014414 289.2892  70.6671 13.16779861264258
1 22969U 94003A   99207.13426042  .00000051  00000-0  10000-3 0  5405
2 22969  82.5591 180.4165 0014372 288.6707  71.2857 13.16779855264284
1 22969U 94003A   99207.43819162  .00000051  00000-0  10000-3 0  5520
2 22969  82.5591 180.2020 0014287 287.7332  72.2234 13.16779904264321
1 22969U 94003A   99207.81810585  .00000051  00000-0  10000-3 0  5533
2 22969  82.5592 179.9337 0014315 286.7561  73.1999 13.16779955264372
1 22969U 94003A   99208.12203679  .00000051  00000-0  10000-3 0  5628
2 22969  82.5594 179.7196 0014314 285.9002  74.0548 13.16780025264410
1 22969U 94003A   99208.42596766  .00000051  00000-0  10000-3 0  5746
2 22969  82.5595 179.5052 0014160 284.5820  75.3733 13.16780072264458
1 22969U 94003A   99208.80588141  .00000051  00000-0  10000-3 0  5791
2 22969  82.5597 179.2369 0014266 283.8734  76.0802 13.16780186264508
1 22969U 94003A   99209.18579516  .00000051  00000-0  10000-3 0  5924
2 22969  82.5598 178.9689 0014313 282.9987  76.9538 13.16780281264559
1 22969U 94003A   99209.41374345  .00000051  00000-0  10000-3 0  6014
2 22969  82.5599 178.8081 0014214 282.0128  77.9403 13.16780311264582
1 22969U 94003A   99209.79365765  .00000051  00000-0  10000-3 0  6022
2 22969  82.5599 178.5399 0014245 281.1314  78.8214 13.16780365264637
1 22969U 94003A   99210.09758853  .00000051  00000-0  10000-3 0  6133
2 22969  82.5601 178.3257 0014279 280.3485  79.6028 13.16780428264675
1 22969U 94003A   99210.47750238  .00000051  00000-0  10000-3 0  6224
2 22969  82.5603 178.0579 0014171 278.9191  81.0327 13.16780477264728
1 22969U 94003A   99210.85741646  .00000051  00000-0  10000-3 0  6263
2 22969  82.5603 177.7899 0014197 277.9856  81.9656 13.16780524264776
1 22969U 94003A   99211.08536495  .00000051  00000-0  10000-3 0  6364
2 22969  82.5604 177.6293 0014181 277.4254  82.5254 13.16780540264807
1 22969U 94003A   99211.46527905  .00000051  00000-0  10000-3 0  5507
2 22969  82.5605 177.3613 0014120 276.1477  83.8036 13.16780572264859
